{
  "type": "FeatureCollection",
  "features": [
    {
      "type": "Feature",
      "properties": {},
      "geometry": {
        "coordinates": [
          [
            -73.92203028272715,
            40.70941982098583
          ],
          [
            -73.90891483514459,
            40.70173443024299
          ],
          [
            -73.91093562345301,
            40.69948852892887
          ],
          [
            -73.90048947650104,
            40.69341640325288
          ],
          [
            -73.8979761575933,
            40.697090308397605
          ],
          [
            -73.89458023342401,
            40.70055613250847
          ],
          [
            -73.89233409957882,
            40.70307676835378
          ],
          [
            -73.89107771023762,
            40.705012400802644
          ],
          [
            -73.89018607909205,
            40.708391941646795
          ],
          [
            -73.8890047097644,
            40.71233193256839
          ],
          [
            -73.9158584830889,
            40.71349451135518
          ],
          [
            -73.91836735589344,
            40.71256745871224
          ],
          [
            -73.91989718016197,
            40.71173289353305
          ],
          [
            -73.92203874391755,
            40.70941410977284
          ]
        ],
        "type": "LineString"
      }
    },
    {
      "type": "Feature",
      "properties": {},
      "geometry": {
        "coordinates": [
          [
            [
              -73.91591986665082,
              40.71350403079205
            ],
            [
              -73.91824519823811,
              40.71271581903022
            ],
            [
              -73.91989746000498,
              40.71174196673846
            ],
            [
              -73.92197794701852,
              40.709515719828715
            ],
            [
              -73.90894467200745,
              40.70181679187141
            ],
            [
              -73.91090250126945,
              40.69945105870548
            ],
            [
              -73.90056358414479,
              40.69351459300361
            ],
            [
              -73.89799421587583,
              40.69717884122278
            ],
            [
              -73.89120471307633,
              40.704831431224505
            ],
            [
              -73.88906517564519,
              40.712296626238185
            ],
            [
              -73.91591986665082,
              40.71350403079205
            ]
          ]
        ],
        "type": "Polygon"
      }
    }
  ]
}